FENGYUN 1C DEB          
1 31877U 99025CKC 17344.92707049  .00000421  00000-0  65988-4 0  9995
2 31877  99.0447  31.6277 0184097  48.1193 313.5552 14.68448725559273
